[{"OBJECT_NAME":"STARLINK-34965","OBJECT_ID":"2025-175N","EPOCH":"2026-03-09T15:23:17.348928","MEAN_MOTION":15.05654944,"ECCENTRICITY":0.0003384,"INCLINATION":97.6003,"RA_OF_ASC_NODE":302.6166,"ARG_OF_PERICENTER":86.2228,"MEAN_ANOMALY":273.9386,"EPHEMERIS_TYPE":0,"CLASSIFICATION_TYPE":"U","NORAD_CAT_ID":65186,"ELEMENT_SET_NO":999,"REV_AT_EPOCH":3263,"BSTAR":0.00067479,"MEAN_MOTION_DOT":9.691e-5,"MEAN_MOTION_DDOT":0},{"OBJECT_NAME":"COSMOS 397 DEB","OBJECT_ID":"1971-015E","EPOCH":"2026-03-09T10:30:57.269376","MEAN_MOTION":14.28908045,"ECCENTRICITY":0.03830098,"INCLINATION":65.6692,"RA_OF_ASC_NODE":75.3326,"ARG_OF_PERICENTER":62.267,"MEAN_ANOMALY":301.6716,"EPHEMERIS_TYPE":0,"CLASSIFICATION_TYPE":"U","NORAD_CAT_ID":5011,"ELEMENT_SET_NO":999,"REV_AT_EPOCH":70661,"BSTAR":0.0012879344,"MEAN_MOTION_DOT":7.13e-5,"MEAN_MOTION_DDOT":0}]
